#dP2024 10 31  0  0  0.00000000      96 __u+U IGS20 FIT  IAC
## 2338 345600.00000000   900.00000000 60614 0.0000000000000
+  132   C01C02C03C04C05C06C07C08C09C10C11C12C13C14C16C19C20
+        C21C22C23C24C25C26C27C28C29C30C32C33C34C35C36C37C38
+        C39C40C41C42C43C44C45C59C60C62E02E03E04E05E06E07E08
+        E09E10E11E12E13E14E15E18E19E21E24E25E26E27E29E30E31
+        E33E34E36G02G03G04G05G06G07G08G09G10G11G12G13G14G15
+        G16G17G18G19G20G21G22G23G24G25G26G27G28G29G30G31G32
+        J02J03J04J07R01R02R03R04R05R06R07R08R09R10R11R12R13
+        R14R15R16R17R18R19R20R21R22R23R24R25R26  0  0  0  0
++        20 20 20 20 19  9 10  9  9  9  9  9  9  9  9  7  7
++         7  7  7  7  7  7  7  7  7  7  7  7  7  7  7  7  8
++         8  8  7  7  8  7  7 17 16 20  4  4  4  4  4  4  4
++         4  4  4  4  4  4  4  4  4  4  4  4  4  5  4  4  4
++         4  4  4  4  4  4  4  4  4  4  4  4  4  4  3  4  4
++         4  4  4  4  4  4  4  4  4  4  4  4  4  4  4  4  4
++        10 10 10 19  7  6  6  6  6 16  6  6  6 15  6  6 15
++         6  6  6  6  6  7  7  6  6 15  6  8  8  0  0  0  0
%c M  cc GPS ccc cccc cccc cccc cccc ccccc ccccc ccccc ccccc
%c cc cc ccc ccc cccc cccc cccc cccc ccccc ccccc ccccc ccccc
%f  0.0000000  0.000000000  0.00000000000  0.000000000000000
%f  0.0000000  0.000000000  0.00000000000  0.000000000000000
%i    0    0    0    0      0      0      0      0         0
%i    0    0    0    0      0      0      0      0         0
/* INFORMATION & ANALYSIS CENTER (IAC)            RAPID DATA
/* S/V CLOCKS ARE ALIGNED TO GNSS TIME                      
/* G:C1WC2W R:C1PC2P E:C1XC5X C:C2IC6I J:C1CC2S             
/* PCV:IGS20_2317 OL/AL:FES2004  NONE     YN ORB:CoN CLK:CoN
*  2024 10 31  1 45  0.00000000
PC01 -34295.865669  24490.916154    915.385466   -377.589587
PC02   4345.039579  41912.378290   2000.494590    814.750942
PC03 -14792.941688  39485.765056   1161.425041    832.958299
PC04 -39571.896361  14438.088037    640.770418   -476.504079
PC05  21961.751067  36017.190051   1231.280764   -249.382440
PC06 -10401.587006  40977.528646   1976.186398    383.056796
PC07  -4894.848256  28700.428641 -30324.600166   -244.509575
PC08 -18801.160742  23759.796867  29190.915748   -727.294286
PC09  -7641.572211  41502.206248  -4681.069758   -557.807055
PC10   2819.821338  30938.111689 -27921.444395   -256.803868
PC11   1444.367965  27235.842200  -5797.086751    219.472906
PC12 -10605.250907  15830.386119 -20338.468376   -254.013856
PC13 -10675.307382  24948.318491  32342.660468     92.848329
PC14   1882.832839  16386.460512  22502.797633   -372.737328
PC16 -13518.834668  39587.806617   6977.756892    140.870399
PC19 -12388.422273 -16719.865915 -18589.171950   -956.898498
PC20   6895.601704 -14084.621252 -23081.741926   -919.491284
PC21 -24070.181254   2505.948200  13916.692175   -918.012576
PC22 -25867.828563 -10011.754160  -3165.881273    166.383873
PC23  17001.340938   5274.839460 -21494.394348   -872.242997
PC24 -15836.117223  21909.369048  -6882.983646    782.308170
PC25   1134.503426  19317.180648 -20113.832577    547.628738
PC26 -22827.848958  12315.139315  10226.179044   -370.369663
PC27  14959.175880  -6292.962378  22686.326853    389.694090
PC28  16561.174476  11930.127073  19038.311819    302.981493
PC29  -8592.956626 -26492.881164  -1770.698327    355.751602
PC30   5156.673560 -22626.237373  15482.413006     14.168036
PC32  24107.436691  -2615.900207 -13797.881033   -785.508053
PC33  12349.668709  16667.698020  18654.263390   -953.828402
PC34  -3952.742190  23727.929856 -14166.850971    553.914801
PC35 -16997.797025 -11947.876732 -18625.298170    221.142111
PC36  -1110.934668 -19135.885112  20304.188678    212.724930
PC37  23132.078798 -11666.830937 -10407.322814   -892.875153
PC38 -24552.172217  25516.128238  22818.931536    188.399660
PC39 -13378.927986  38524.461218  11280.317469    -10.236082
PC40  -8454.225211  23334.773933 -34011.155697    -99.757881
PC41  25531.885126  10466.546188   4164.707950   -893.753687
PC42  -8990.262131  13372.506299  22820.196468   -504.680648
PC43   7970.501600  26740.567553    805.506271     90.673289
PC44 -14902.368368   6778.296716 -22611.369763    638.151031
PC45 -16517.028284  -5767.297069  21728.438093   -158.140350
PC59 -32269.270160  27073.295968   1806.772237     -0.790567
PC60   7313.907638  41492.313816   1693.205194      0.396659
PC62 -39617.503321  14342.051436  -1173.670463      0.126885
PE02 -12044.964012  16599.844221 -21340.001560    171.054054
PE03  -1666.489673  21079.943394  20696.502342   -150.343051
PE04 -15145.185898 -24890.384042  -5224.481750    -70.374583
PE05 -17103.147562   4969.696121  23636.602502   4797.553865
PE06 -20431.965679 -20980.501501   4253.375442    -42.085626
PE07  22618.773216  14408.644875 -12524.152262   -150.228981
PE08  14630.743585  25021.106788   5973.615821   -360.081177
PE09 -22549.601520 -14547.451076  12497.464690   -645.630880
PE10  -9857.786907 -15520.721710 -23199.296871   -666.703830
PE11 -15484.599875  -4493.796343 -24827.081955   1011.087026
PE12  -3599.414344 -22924.130696 -18369.095658  -1274.392549
PE13  15173.647557   5110.278254  24905.502385    -26.297349
PE14 -25376.215867  -6456.756344 -18181.600326    336.883700
PE15   3051.703995  23363.746604  17927.286311   -136.259265
PE18  15352.114474  -6311.975130  18671.436113    718.479669
PE19   3352.803344 -19885.744065 -21667.551933    859.672905
PE21  27275.674222  -8969.241435   7206.251652   -625.537849
PE24 -26839.279192  -4386.468825  11645.328851  -1072.560809
PE25 -27461.471770   8700.958983  -6784.332561     10.712341
PE26  18239.049994 -16190.494475  16791.373184   -225.481746
PE27  26908.778465   4232.464016 -11597.977895   -491.629417
PE29  17012.127433  -5417.336145 -23622.220347    -41.853437
PE30  10732.085433  14828.239114 -23274.437867   -874.872237
PE31 -10664.046594 -14777.961749  23330.817925    -41.175204
PE33  10947.950417 -27508.847742    -77.019293     15.991557
PE34 -10621.987943  27614.568745    525.465212   -143.134505
PE36 -18202.041868  15754.618899 -17215.118995   -304.442624
PG02  13991.559795 -17784.084581  14087.419802   -325.378157
PG03  19829.483883 -12635.941292 -12409.184673    586.223601
PG04   9571.062857 -11915.141736 -21698.078468    471.119748
PG05 -25987.222189   4712.258154  -3306.254457   -191.488843
PG06  -7631.619342 -16675.562296 -19100.337570    -77.936061
PG07   5653.447704 -25548.109820   3273.714862    -23.378481
PG08  18155.787200  -1279.477160  19371.510542    400.068653
PG09   -188.924538 -19017.535527 -18606.085078    422.134678
PG10  11921.004529  11619.267842  20998.489856   -177.766597
PG11 -15108.989232  -2322.587989 -21677.614159   -747.574046
PG12 -22985.055347   9870.276629  -9140.490374   -548.816228
PG13 -19167.272583  -8504.732008  16209.605725    683.919166
PG14  -7699.136991 -14105.791057  21221.100950    529.307852
PG15 -17554.976476   3941.648258  19064.595747    222.031649
PG16  25819.355286   1751.770039  -7291.795513   -140.938241
PG17 -12331.221743 -22562.263967   6663.066324    576.674610
PG18  -5385.379952  25491.692406   4519.242979   -659.498342
PG19 -17747.556150 -19761.756350  -3673.227440    556.997461
PG20 -22446.595702  -1283.051502 -13947.148533    369.174351
PG21  15484.161605 -11499.856462  18154.514710     98.579598
PG22 -15217.762343 -11345.717092  18852.267783    -75.565831
PG23  -3295.578024  15492.044429  21312.642328    353.045000
PG24 -14338.561659  16460.740487  14387.959635   -482.711829
PG25 -11468.412864  16025.585928 -18031.889609    499.298407
PG26  19602.333916   7048.599446 -16859.177231     42.203635
PG27  21243.041622   9741.729951  12717.567491    -34.733863
PG28   7457.389397  18533.516509 -17516.668251   -463.555421
PG29  -2591.672386  18124.203154 -19238.595455   -567.423676
PG30  -2368.453720 -23234.376655  12546.207316   -291.761764
PG31  13769.961027   7297.513855 -21721.625341   -222.566382
PG32  15571.938337  21237.118672   4446.905946   -580.180381
PJ02 -32065.642427  16779.203285 -16915.671239      0.484424
PJ03 -22873.826653  31318.831732 -11891.619040     -5.645907
PJ04 -27607.069639  25488.442829  24940.316371     21.806451
PJ07 -25389.659470  33651.302529     26.764669      0.002684
PR01 -11567.098502 -14585.628910 -17446.317613    102.818478
PR02 -22038.180374 -12587.069707  -2091.307138    -25.438219
PR03 -20688.795150  -2826.223018  14642.920970    110.440305
PR04  -8070.964587   7730.991736  22950.342470    261.737255
PR05   8768.887650  14533.615819  19058.312177    139.962105
PR06  22938.853744  11159.001723    793.672833   -186.863393
PR07  20546.953773   2656.852024 -14886.762984     94.010234
PR08   7868.452859  -7983.703357 -22861.904795     -6.352996
PR09  13748.153901   3183.866331 -21210.759028    217.765088
PR10  21483.316211  -7929.219560 -11332.428914   -237.560947
PR11  18717.588673 -16113.829763   6350.006095      7.990384
PR12   3054.252788 -14102.865397  21060.177260     46.668208
PR13 -11537.075234  -5050.195155  22166.466572    -52.993464
PR14 -21865.856636   9193.377754   9419.477193     27.141078
PR15 -17863.308174  16361.750013  -7985.336740     74.550616
PR16  -3293.755833  14077.614732 -21016.582302     30.383207
PR17 -10327.810384   4309.961341 -22902.310787    135.541702
PR18  -6044.684544  19866.929695 -14819.703529    169.504762
PR19   -392.885764  25477.520911  -1039.602696   -296.762289
PR20   8188.881179  15849.459699  18262.074540   -121.222337
PR21  10381.947751  -3278.668547  23076.914744   -147.251494
PR22   6315.973032 -20511.933264  13812.531892      4.926238
PR23  -1477.176001 -25405.850249  -1777.282202   -137.099865
PR24  -9429.898960 -14979.449058 -18354.498834    -78.161949
PR25  10753.477231  -4452.303206  22711.042729    -85.472901
PR26   9385.508762  -7105.825736 -22611.344719   -500.946650
EOF
